UNKNOWN                 
1 81599U          25352.77827740  .00000356  00000+0  73912-3 0  9999
2 81599  67.2967 267.9074 0245083  79.8512 314.2725 13.31442601585883
UNKNOWN                 
1 81605U          25355.94871818  .00001814  00000+0  77035-2 0  9993
2 81605  56.4332 187.4802 0178680 142.2063 219.1566 12.81521797187383
UNKNOWN                 
1 81614U          25357.92475726  .00005360  00000+0  34649-1 0  9994
2 81614 101.8213 353.4341 0333065 127.6246 235.5540 12.37210082539365
UNKNOWN                 
1 81615U          25360.37840263  .00001051  00000+0  40092-3 0  9994
2 81615  65.8278  30.3455 0770494 130.2650 236.8418 13.34129996584687
UNKNOWN                 
1 81617U          25361.42700440  .00000373  00000+0  24641-2 0  9992
2 81617 101.2589 175.2380 0039753 214.9724 144.8740 12.57546050554954
UNKNOWN                 
1 81624U          25354.79848584  .00005219  00000+0  83184-3 0  9996
2 81624  66.9768 144.6673 0071346 230.3305 129.1510 14.71055036640891
UNKNOWN                 
1 81640U          25360.30186597  .00000133  00000+0  17669-3 0  9992
2 81640  65.8263 104.1890 0976149  72.1591 298.3355 12.57230140511787
UNKNOWN                 
1 81652U          25355.17970245  .00000611  00000+0  77035-3 0  9999
2 81652 102.1470 245.4139 0368004 340.8161 173.3701 13.44387754579785
UNKNOWN                 
1 81667U          25360.75296347  .00002746  00000+0  74446-3 0  9993
2 81667  74.0409  10.3357 0017836 297.1851  62.7489 14.48041631458679
UNKNOWN                 
1 81674U          25355.73773600  .00001058  00000+0  64220-3 0  9999
2 81674  66.8232 341.6139 0031238 226.0718 316.1419 14.09934139614981
UNKNOWN                 
1 81683U          25358.76172514  .00003205  00000+0  70066-3 0  9993
2 81683  81.2143 282.6928 0022255 263.4903  96.3760 14.57460951637613
UNKNOWN                 
1 81693U          25360.41305708  .00000042  00000+0  56169-3 0  9996
2 81693 101.0919  60.3427 0367279  58.9807 304.6782 12.25913486969446
