CCSDS_OMM_VERS = 2.0
CREATION_DATE  = 
ORIGINATOR     = 

OBJECT_NAME    = UNKNOWN
OBJECT_ID      = 
CENTER_NAME    = EARTH
REF_FRAME      = TEME
TIME_SYSTEM    = UTC
MEAN_ELEMENT_THEORY = SGP/SGP4

EPOCH          = 2025-12-18T18:40:43.167360
MEAN_MOTION    = 13.31442601
ECCENTRICITY   = .0245083
INCLINATION    = 67.2967
RA_OF_ASC_NODE = 267.9074
ARG_OF_PERICENTER = 79.8512
MEAN_ANOMALY   = 314.2725

EPHEMERIS_TYPE = 0
CLASSIFICATION_TYPE = U
NORAD_CAT_ID   = 81599
ELEMENT_SET_NO = 999
REV_AT_EPOCH   = 58588
BSTAR          = .73912E-3
MEAN_MOTION_DOT = .356E-5
MEAN_MOTION_DDOT = 0

CCSDS_OMM_VERS = 2.0
CREATION_DATE  = 
ORIGINATOR     = 

OBJECT_NAME    = UNKNOWN
OBJECT_ID      = 
CENTER_NAME    = EARTH
REF_FRAME      = TEME
TIME_SYSTEM    = UTC
MEAN_ELEMENT_THEORY = SGP/SGP4

EPOCH          = 2025-12-21T22:46:09.250752
MEAN_MOTION    = 12.81521797
ECCENTRICITY   = .017868
INCLINATION    = 56.4332
RA_OF_ASC_NODE = 187.4802
ARG_OF_PERICENTER = 142.2063
MEAN_ANOMALY   = 219.1566

EPHEMERIS_TYPE = 0
CLASSIFICATION_TYPE = U
NORAD_CAT_ID   = 81605
ELEMENT_SET_NO = 999
REV_AT_EPOCH   = 18738
BSTAR          = .77035E-2
MEAN_MOTION_DOT = .1814E-4
MEAN_MOTION_DDOT = 0

CCSDS_OMM_VERS = 2.0
CREATION_DATE  = 
ORIGINATOR     = 

OBJECT_NAME    = UNKNOWN
OBJECT_ID      = 
CENTER_NAME    = EARTH
REF_FRAME      = TEME
TIME_SYSTEM    = UTC
MEAN_ELEMENT_THEORY = SGP/SGP4

EPOCH          = 2025-12-23T22:11:39.027264
MEAN_MOTION    = 12.37210082
ECCENTRICITY   = .0333065
INCLINATION    = 101.8213
RA_OF_ASC_NODE = 353.4341
ARG_OF_PERICENTER = 127.6246
MEAN_ANOMALY   = 235.5540

EPHEMERIS_TYPE = 0
CLASSIFICATION_TYPE = U
NORAD_CAT_ID   = 81614
ELEMENT_SET_NO = 999
REV_AT_EPOCH   = 53936
BSTAR          = .34649E-1
MEAN_MOTION_DOT = .536E-4
MEAN_MOTION_DDOT = 0

CCSDS_OMM_VERS = 2.0
CREATION_DATE  = 
ORIGINATOR     = 

OBJECT_NAME    = UNKNOWN
OBJECT_ID      = 
CENTER_NAME    = EARTH
REF_FRAME      = TEME
TIME_SYSTEM    = UTC
MEAN_ELEMENT_THEORY = SGP/SGP4

EPOCH          = 2025-12-26T09:04:53.987232
MEAN_MOTION    = 13.34129996
ECCENTRICITY   = .0770494
INCLINATION    = 65.8278
RA_OF_ASC_NODE = 30.3455
ARG_OF_PERICENTER = 130.2650
MEAN_ANOMALY   = 236.8418

EPHEMERIS_TYPE = 0
CLASSIFICATION_TYPE = U
NORAD_CAT_ID   = 81615
ELEMENT_SET_NO = 999
REV_AT_EPOCH   = 58468
BSTAR          = .40092E-3
MEAN_MOTION_DOT = .1051E-4
MEAN_MOTION_DDOT = 0

CCSDS_OMM_VERS = 2.0
CREATION_DATE  = 
ORIGINATOR     = 

OBJECT_NAME    = UNKNOWN
OBJECT_ID      = 
CENTER_NAME    = EARTH
REF_FRAME      = TEME
TIME_SYSTEM    = UTC
MEAN_ELEMENT_THEORY = SGP/SGP4

EPOCH          = 2025-12-27T10:14:53.180160
MEAN_MOTION    = 12.57546050
ECCENTRICITY   = .0039753
INCLINATION    = 101.2589
RA_OF_ASC_NODE = 175.2380
ARG_OF_PERICENTER = 214.9724
MEAN_ANOMALY   = 144.8740

EPHEMERIS_TYPE = 0
CLASSIFICATION_TYPE = U
NORAD_CAT_ID   = 81617
ELEMENT_SET_NO = 999
REV_AT_EPOCH   = 55495
BSTAR          = .24641E-2
MEAN_MOTION_DOT = .373E-5
MEAN_MOTION_DDOT = 0

CCSDS_OMM_VERS = 2.0
CREATION_DATE  = 
ORIGINATOR     = 

OBJECT_NAME    = UNKNOWN
OBJECT_ID      = 
CENTER_NAME    = EARTH
REF_FRAME      = TEME
TIME_SYSTEM    = UTC
MEAN_ELEMENT_THEORY = SGP/SGP4

EPOCH          = 2025-12-20T19:09:49.176576
MEAN_MOTION    = 14.71055036
ECCENTRICITY   = .0071346
INCLINATION    = 66.9768
RA_OF_ASC_NODE = 144.6673
ARG_OF_PERICENTER = 230.3305
MEAN_ANOMALY   = 129.1510

EPHEMERIS_TYPE = 0
CLASSIFICATION_TYPE = U
NORAD_CAT_ID   = 81624
ELEMENT_SET_NO = 999
REV_AT_EPOCH   = 64089
BSTAR          = .83184E-3
MEAN_MOTION_DOT = .5219E-4
MEAN_MOTION_DDOT = 0

CCSDS_OMM_VERS = 2.0
CREATION_DATE  = 
ORIGINATOR     = 

OBJECT_NAME    = UNKNOWN
OBJECT_ID      = 
CENTER_NAME    = EARTH
REF_FRAME      = TEME
TIME_SYSTEM    = UTC
MEAN_ELEMENT_THEORY = SGP/SGP4

EPOCH          = 2025-12-26T07:14:41.219808
MEAN_MOTION    = 12.57230140
ECCENTRICITY   = .0976149
INCLINATION    = 65.8263
RA_OF_ASC_NODE = 104.1890
ARG_OF_PERICENTER = 72.1591
MEAN_ANOMALY   = 298.3355

EPHEMERIS_TYPE = 0
CLASSIFICATION_TYPE = U
NORAD_CAT_ID   = 81640
ELEMENT_SET_NO = 999
REV_AT_EPOCH   = 51178
BSTAR          = .17669E-3
MEAN_MOTION_DOT = .133E-5
MEAN_MOTION_DDOT = 0

CCSDS_OMM_VERS = 2.0
CREATION_DATE  = 
ORIGINATOR     = 

OBJECT_NAME    = UNKNOWN
OBJECT_ID      = 
CENTER_NAME    = EARTH
REF_FRAME      = TEME
TIME_SYSTEM    = UTC
MEAN_ELEMENT_THEORY = SGP/SGP4

EPOCH          = 2025-12-21T04:18:46.291680
MEAN_MOTION    = 13.44387754
ECCENTRICITY   = .0368004
INCLINATION    = 102.1470
RA_OF_ASC_NODE = 245.4139
ARG_OF_PERICENTER = 340.8161
MEAN_ANOMALY   = 173.3701

EPHEMERIS_TYPE = 0
CLASSIFICATION_TYPE = U
NORAD_CAT_ID   = 81652
ELEMENT_SET_NO = 999
REV_AT_EPOCH   = 57978
BSTAR          = .77035E-3
MEAN_MOTION_DOT = .611E-5
MEAN_MOTION_DDOT = 0

CCSDS_OMM_VERS = 2.0
CREATION_DATE  = 
ORIGINATOR     = 

OBJECT_NAME    = UNKNOWN
OBJECT_ID      = 
CENTER_NAME    = EARTH
REF_FRAME      = TEME
TIME_SYSTEM    = UTC
MEAN_ELEMENT_THEORY = SGP/SGP4

EPOCH          = 2025-12-26T18:04:16.043808
MEAN_MOTION    = 14.48041631
ECCENTRICITY   = .0017836
INCLINATION    = 74.0409
RA_OF_ASC_NODE = 10.3357
ARG_OF_PERICENTER = 297.1851
MEAN_ANOMALY   = 62.7489

EPHEMERIS_TYPE = 0
CLASSIFICATION_TYPE = U
NORAD_CAT_ID   = 81667
ELEMENT_SET_NO = 999
REV_AT_EPOCH   = 45867
BSTAR          = .74446E-3
MEAN_MOTION_DOT = .2746E-4
MEAN_MOTION_DDOT = 0

CCSDS_OMM_VERS = 2.0
CREATION_DATE  = 
ORIGINATOR     = 

OBJECT_NAME    = UNKNOWN
OBJECT_ID      = 
CENTER_NAME    = EARTH
REF_FRAME      = TEME
TIME_SYSTEM    = UTC
MEAN_ELEMENT_THEORY = SGP/SGP4

EPOCH          = 2025-12-21T17:42:20.390400
MEAN_MOTION    = 14.09934139
ECCENTRICITY   = .0031238
INCLINATION    = 66.8232
RA_OF_ASC_NODE = 341.6139
ARG_OF_PERICENTER = 226.0718
MEAN_ANOMALY   = 316.1419

EPHEMERIS_TYPE = 0
CLASSIFICATION_TYPE = U
NORAD_CAT_ID   = 81674
ELEMENT_SET_NO = 999
REV_AT_EPOCH   = 61498
BSTAR          = .6422E-3
MEAN_MOTION_DOT = .1058E-4
MEAN_MOTION_DDOT = 0

CCSDS_OMM_VERS = 2.0
CREATION_DATE  = 
ORIGINATOR     = 

OBJECT_NAME    = UNKNOWN
OBJECT_ID      = 
CENTER_NAME    = EARTH
REF_FRAME      = TEME
TIME_SYSTEM    = UTC
MEAN_ELEMENT_THEORY = SGP/SGP4

EPOCH          = 2025-12-24T18:16:53.052096
MEAN_MOTION    = 14.57460951
ECCENTRICITY   = .0022255
INCLINATION    = 81.2143
RA_OF_ASC_NODE = 282.6928
ARG_OF_PERICENTER = 263.4903
MEAN_ANOMALY   = 96.3760

EPHEMERIS_TYPE = 0
CLASSIFICATION_TYPE = U
NORAD_CAT_ID   = 81683
ELEMENT_SET_NO = 999
REV_AT_EPOCH   = 63761
BSTAR          = .70066E-3
MEAN_MOTION_DOT = .3205E-4
MEAN_MOTION_DDOT = 0

CCSDS_OMM_VERS = 2.0
CREATION_DATE  = 
ORIGINATOR     = 

OBJECT_NAME    = UNKNOWN
OBJECT_ID      = 
CENTER_NAME    = EARTH
REF_FRAME      = TEME
TIME_SYSTEM    = UTC
MEAN_ELEMENT_THEORY = SGP/SGP4

EPOCH          = 2025-12-26T09:54:48.131712
MEAN_MOTION    = 12.25913486
ECCENTRICITY   = .0367279
INCLINATION    = 101.0919
RA_OF_ASC_NODE = 60.3427
ARG_OF_PERICENTER = 58.9807
MEAN_ANOMALY   = 304.6782

EPHEMERIS_TYPE = 0
CLASSIFICATION_TYPE = U
NORAD_CAT_ID   = 81693
ELEMENT_SET_NO = 999
REV_AT_EPOCH   = 96944
BSTAR          = .56169E-3
MEAN_MOTION_DOT = .42E-6
MEAN_MOTION_DDOT = 0

